NORAD_CAT_ID,OBJECT_NAME,OBJECT_TYPE,EPOCH,MEAN_MOTION,ECCENTRICITY,INCLINATION,RA_OF_ASC_NODE,ARG_OF_PERICENTER,MEAN_ANOMALY,BSTAR,MEAN_MOTION_DOT,MEAN_MOTION_DDOT,TLE_LINE0,TLE_LINE1,TLE_LINE2,SEMIMAJOR_AXIS,PERIOD,APOGEE,PERIGEE,DECAYED
55761.0,STARLINK-5611,PAYLOAD,2023-05-14 21:07:39,15.69928797,0.000376,69.9994,312.4284,261.3422,98.7348,3.7769e-05,4.332e-05,0.0,0 STARLINK-5611,1 55761U 23028W   23134.88031320  .00004332  00000-0  37769-4 0  9995,2 55761  69.9994 312.4284 0003760 261.3422  98.7348 15.69928797 11994,6737.238,91.724,361.636,356.57,0.0
55761.0,STARLINK-5611,PAYLOAD,2023-05-15 04:46:24,15.69919833,0.0003488,69.9998,311.5334,262.7429,97.337,-1.5153e-05,-2.034e-05,0.0,0 STARLINK-5611,1 55761U 23028W   23135.19889941 -.00002034  00000-0 -15153-4 0  9992,2 55761  69.9998 311.5334 0003488 262.7429  97.3370 15.69919833 12030,6737.263,91.724,361.478,356.778,0.0
55761.0,STARLINK-5611,PAYLOAD,2023-05-15 12:25:10,15.69915665,0.0003386,69.9998,310.6375,261.1247,98.9565,-1.6587e-07,-2.33e-06,0.0,0 STARLINK-5611,1 55761U 23028W   23135.51748582 -.00000233  00000-0 -16587-6 0  9996,2 55761  69.9998 310.6375 0003386 261.1247  98.9565 15.69915665 12091,6737.275,91.725,361.422,356.859,0.0
55761.0,STARLINK-5611,PAYLOAD,2023-05-15 18:32:11,15.69921388,0.000336,70.0,309.9209,260.6499,99.4317,1.9992e-05,2.191e-05,0.0,0 STARLINK-5611,1 55761U 23028W   23135.77235403  .00002191  00000-0  19992-4 0  9991,2 55761  70.0000 309.9209 0003360 260.6499  99.4317 15.69921388 12135,6737.259,91.724,361.388,356.86,0.0
55761.0,STARLINK-5611,PAYLOAD,2023-05-16 12:53:12,15.69935894,0.0003299,70.0002,307.7715,255.827,104.2559,1.8876e-05,2.059e-05,0.0,0 STARLINK-5611,1 55761U 23028W   23136.53694615  .00002059  00000-0  18876-4 0  9993,2 55761  70.0002 307.7715 0003299 255.8270 104.2559 15.69935894 12252,6737.217,91.723,361.305,356.86,0.0
55761.0,STARLINK-5611,PAYLOAD,2023-05-16 17:28:27,15.69936039,0.0003431,70.0004,307.2329,262.4283,97.6523,3.7085e-05,4.251e-05,0.0,0 STARLINK-5611,1 55761U 23028W   23136.72809689  .00004251  00000-0  37085-4 0  9992,2 55761  70.0004 307.2329 0003431 262.4283  97.6523 15.69936039 12276,6737.217,91.723,361.394,356.77,0.0
55761.0,STARLINK-5611,PAYLOAD,2023-05-17 04:10:44,15.69918589,0.0003165,70.0002,305.9794,268.2006,91.8828,3.456e-06,2.03e-06,0.0,0 STARLINK-5611,1 55761U 23028W   23137.17412176  .00000203  00000-0  34560-5 0  9992,2 55761  70.0002 305.9794 0003165 268.2006  91.8828 15.69918589 12348,6737.267,91.725,361.264,357.0,0.0
55761.0,STARLINK-5611,PAYLOAD,2023-05-17 17:56:29,15.69927408,0.0003125,70.0011,304.3675,264.8465,95.2374,2.6282e-05,2.949e-05,0.0,0 STARLINK-5611,1 55761U 23028W   23137.74756775  .00002949  00000-0  26282-4 0  9991,2 55761  70.0011 304.3675 0003125 264.8465  95.2374 15.69927408 12430,6737.242,91.724,361.212,357.001,0.0
55761.0,STARLINK-5611,PAYLOAD,2023-05-17 21:00:00,15.69929247,0.0003558,69.9996,304.007,272.4615,87.6174,2.4826e-05,2.774e-05,0.0,0 STARLINK-5611,1 55761U 23028W   23137.87500061  .00002774  00000-0  24826-4 0  9998,2 55761  69.9996 304.0070 0003558 272.4615  87.6174 15.69929247 12466,6737.236,91.724,361.499,356.704,0.0
55761.0,STARLINK-5611,PAYLOAD,2023-05-18 12:17:31,15.69930407,0.0003606,69.9995,302.2166,273.0744,87.0039,3.7523e-06,2.38e-06,0.0,0 STARLINK-5611,1 55761U 23028W   23138.51216703  .00000238  00000-0  37523-5 0  9999,2 55761  69.9995 302.2166 0003606 273.0744  87.0039 15.69930407 12560,6737.233,91.724,361.528,356.669,0.0
55761.0,STARLINK-5611,PAYLOAD,2023-05-18 22:59:46,15.69939149,0.000357,69.9991,300.9623,273.3023,86.7764,2.4231e-05,2.704e-05,0.0,0 STARLINK-5611,1 55761U 23028W   23138.95817822  .00002704  00000-0  24231-4 0  9997,2 55761  69.9991 300.9623 0003570 273.3023  86.7764 15.69939149 12622,6737.208,91.723,361.478,356.668,0.0
55761.0,STARLINK-5611,PAYLOAD,2023-05-19 17:20:48,15.69936324,0.000377,70.0,298.813,274.9044,85.1721,2.7994e-05,3.156e-05,0.0,0 STARLINK-5611,1 55761U 23028W   23139.72278093  .00003156  00000-0  27994-4 0  9995,2 55761  70.0000 298.8130 0003770 274.9044  85.1721 15.69936324 12747,6737.216,91.723,361.621,356.541,0.0
55761.0,STARLINK-5611,PAYLOAD,2023-05-19 20:24:18,15.69933223,0.0003759,70.0003,298.4554,274.9626,85.114,2.2918e-05,2.545e-05,0.0,0 STARLINK-5611,1 55761U 23028W   23139.85021647  .00002545  00000-0  22918-4 0  9992,2 55761  70.0003 298.4554 0003759 274.9626  85.1140 15.69933223 12772,6737.225,91.724,361.623,356.558,0.0
55761.0,STARLINK-5611,PAYLOAD,2023-05-20 10:10:05,15.69924619,0.0003873,70.0015,296.8426,277.1974,82.8782,3.1929e-06,1.71e-06,0.0,0 STARLINK-5611,1 55761U 23028W   23140.42367066  .00000171  00000-0  31929-5 0  9991,2 55761  70.0015 296.8426 0003873 277.1974  82.8782 15.69924619 12857,6737.25,91.724,361.724,356.505,0.0
55761.0,STARLINK-5611,PAYLOAD,2023-05-20 17:48:49,15.69956279,0.0003863,70.0007,295.9466,281.1589,78.9172,5.5906e-05,6.524e-05,0.0,0 STARLINK-5611,1 55761U 23028W   23140.74223571  .00006524  00000-0  55906-4 0  9996,2 55761  70.0007 295.9466 0003863 281.1589  78.9172 15.69956279 12900,6737.159,91.722,361.627,356.422,0.0
55761.0,STARLINK-5611,PAYLOAD,2023-05-20 19:20:34,15.69944326,0.0003883,70.0017,295.768,291.8722,68.206,3.3007e-05,3.761e-05,0.0,0 STARLINK-5611,1 55761U 23028W   23140.80595950  .00003761  00000-0  33007-4 0  9994,2 55761  70.0017 295.7680 0003883 291.8722  68.2060 15.69944326 12926,6737.193,91.723,361.674,356.442,0.0
55761.0,STARLINK-5611,PAYLOAD,2023-05-21 09:06:22,15.69904468,0.0003678,70.0008,294.1532,276.8961,83.1816,-1.6393e-05,-2.182e-05,0.0,0 STARLINK-5611,1 55761U 23028W   23141.37943237 -.00002182  00000-0 -16393-4 0  9999,2 55761  70.0008 294.1532 0003678 276.8961  83.1816 15.69904468 13003,6737.307,91.725,361.65,356.694,0.0
55761.0,STARLINK-5611,PAYLOAD,2023-05-21 10:38:07,15.69907616,0.0003523,70.0016,293.9745,290.4517,69.63,-2.1548e-05,-2.801e-05,0.0,0 STARLINK-5611,1 55761U 23028W   23141.44314695 -.00002801  00000-0 -21548-4 0  9993,2 55761  70.0016 293.9745 0003523 290.4517  69.6300 15.69907616 13020,6737.298,91.725,361.537,356.79,0.0
55761.0,STARLINK-5611,PAYLOAD,2023-05-21 16:45:07,15.69923037,0.000393,70.0003,293.2601,277.0253,83.0495,8.2759e-06,7.82e-06,0.0,0 STARLINK-5611,1 55761U 23028W   23141.69800698  .00000782  00000-0  82759-5 0  9999,2 55761  70.0003 293.2601 0003930 277.0253  83.0495 15.69923037 13053,6737.254,91.724,361.767,356.471,0.0
55761.0,STARLINK-5611,PAYLOAD,2023-05-21 19:48:38,15.6992604,0.0003664,70.0014,292.9029,277.5214,82.5566,1.6746e-05,1.801e-05,0.0,0 STARLINK-5611,1 55761U 23028W   23141.82544006  .00001801  00000-0  16746-4 0  9997,2 55761  70.0014 292.9029 0003664 277.5214  82.5566 15.69926040 13084,6737.246,91.724,361.579,356.642,0.0
55761.0,STARLINK-5611,PAYLOAD,2023-05-22 11:06:09,15.69932124,0.0003734,70.0018,291.11,279.0972,80.9801,4.0287e-05,4.636e-05,0.0,0 STARLINK-5611,1 55761U 23028W   23142.46260561  .00004636  00000-0  40287-4 0  9995,2 55761  70.0018 291.1100 0003734 279.0972  80.9801 15.69932124 13180,6737.228,91.724,361.609,356.578,0.0
55761.0,STARLINK-5611,PAYLOAD,2023-05-22 12:37:54,15.69931689,0.0003691,70.0017,290.9311,279.2091,80.8687,3.8277e-05,4.394e-05,0.0,0 STARLINK-5611,1 55761U 23028W   23142.52632177  .00004394  00000-0  38277-4 0  9995,2 55761  70.0017 290.9311 0003691 279.2091  80.8687 15.69931689 13193,6737.229,91.724,361.581,356.608,0.0
55761.0,STARLINK-5611,PAYLOAD,2023-05-23 16:09:26,15.69928418,0.0003853,70.0011,287.7075,271.9137,88.1617,3.1562e-05,3.585e-05,0.0,0 STARLINK-5611,1 55761U 23028W   23143.67322443  .00003585  00000-0  31562-4 0  9995,2 55761  70.0011 287.7075 0003853 271.9137  88.1617 15.69928418 13367,6737.239,91.724,361.7,356.508,0.0
55761.0,STARLINK-5611,PAYLOAD,2023-05-23 19:12:56,15.69929641,0.0003938,69.9992,287.3458,275.823,84.2516,2.5758e-05,2.886e-05,0.0,0 STARLINK-5611,1 55761U 23028W   23143.80065674  .00002886  00000-0  25758-4 0  9993,2 55761  69.9992 287.3458 0003938 275.8230  84.2516 15.69929641 13391,6737.235,91.724,361.753,356.447,0.0
55761.0,STARLINK-5611,PAYLOAD,2023-05-24 02:51:43,15.69915165,0.0003375,70.001,286.453,277.2355,82.8457,-1.9814e-05,-2.594e-05,0.0,0 STARLINK-5611,1 55761U 23028W   23144.11924917 -.00002594  00000-0 -19814-4 0  9996,2 55761  70.0010 286.4530 0003375 277.2355  82.8457 15.69915165 13434,6737.277,91.725,361.416,356.868,0.0
55761.0,STARLINK-5611,PAYLOAD,2023-05-25 18:37:15,15.69927602,0.0003474,69.9997,281.7955,287.3547,72.7269,9.9343e-06,9.82e-06,0.0,0 STARLINK-5611,1 55761U 23028W   23145.77587755  .00000982  00000-0  99343-5 0  9997,2 55761  69.9997 281.7955 0003474 287.3547  72.7269 15.69927602 13695,6737.241,91.724,361.447,356.766,0.0
55761.0,STARLINK-5611,PAYLOAD,2023-05-26 11:26:32,15.69925798,0.0002905,69.9994,279.8238,269.6909,90.3954,1.7524e-06,-2e-08,0.0,0 STARLINK-5611,1 55761U 23028W   23146.47676516 -.00000002  00000-0  17524-5 0  9994,2 55761  69.9994 279.8238 0002905 269.6909  90.3954 15.69925798 13812,6737.246,91.724,361.068,357.154,0.0
55761.0,STARLINK-5611,PAYLOAD,2023-05-26 19:05:18,15.6992339,0.0002839,69.9996,278.9281,272.6051,87.482,8.4532e-06,8.04e-06,0.0,0 STARLINK-5611,1 55761U 23028W   23146.79534866  .00000804  00000-0  84532-5 0  9992,2 55761  69.9996 278.9281 0002839 272.6051  87.4820 15.69923390 13860,6737.253,91.724,361.031,357.205,0.0
55761.0,STARLINK-5611,PAYLOAD,2023-05-27 10:22:49,15.69926809,0.0002979,69.9994,277.1367,271.874,88.2115,1.2689e-05,1.314e-05,0.0,0 STARLINK-5611,1 55761U 23028W   23147.43251296  .00001314  00000-0  12689-4 0  9997,2 55761  69.9994 277.1367 0002979 271.8740  88.2115 15.69926809 13959,6737.243,91.724,361.115,357.101,0.0
55761.0,STARLINK-5611,PAYLOAD,2023-05-27 18:01:34,15.69931196,0.0003252,69.9977,276.2407,259.5648,100.5182,8.0822e-06,7.59e-06,0.0,0 STARLINK-5611,1 55761U 23028W   23147.75109319  .00000759  00000-0  80822-5 0  9997,2 55761  69.9977 276.2407 0003252 259.5648 100.5182 15.69931196 14015,6737.231,91.724,361.287,356.905,0.0
